{"id":"799","name":"Uranus ","centerId":"500@10","centerName":"Sun ","epoch":"2000-Jan-01 12:00:00.0000","elementTable":{"periapsis":2749082756940.631,"inclination":0.7726589302345578,"longitudeOfAscendingNode":74.00247590855591,"argumentOfPeriapsis":96.59158989666786,"timeOfPeriapsis":2439319.7039593444,"meanMotion":1.352774984094379e-7,"meanAnomaly":142.8889650360195,"trueAnomaly":145.8267121145811,"apoapsis":3004498349763.6973,"siderealOrbitPeriod":2661196460.8512,"semiMajorAxis":2876790553352.1636,"semiMinorAxis":2873954524099.4956,"semiLatusRectum":2871121290692.327,"eccentricity":0.04439245542666346,"linearEccentricity":127707796411.53241},"physicalDataTable":{"meanRadius":25362000,"mass":8.6813e+25,"siderealRotationRate":0.000101237,"siderealRotationPeriod":62064.11990852738,"gravParameter":5793951256,"obliquity":97.77},"vectorTable":{"position":[-2465970352641.304,0,-1674191601111.3567],"velocity":[-3818.851669309543,0,5323.094815795201]}}
